#cP2018  1 13  0  0  0.00000000      96 ORBIT IGS14 HLM  IGS
## 1983 518400.00000000   900.00000000 58131 0.0000000000000
+   32   G01G02G03G04G05G06G07G08G09G10G11G12G13G14G15G16G17
+        G18G19G20G21G22G23G24G25G26G27G28G29G30G31G32  0  0
+          0  0  0  0  0  0  0  0  0  0  0  0  0  0  0  0  0
+          0  0  0  0  0  0  0  0  0  0  0  0  0  0  0  0  0
+          0  0  0  0  0  0  0  0  0  0  0  0  0  0  0  0  0
++         2  2  2  0  2  2  2  2  2  2  2  2  2  2  2  2  2
++         2  2  2  2  2  2  2  2  2  2  2  2  2  2  2  0  0
++         0  0  0  0  0  0  0  0  0  0  0  0  0  0  0  0  0
++         0  0  0  0  0  0  0  0  0  0  0  0  0  0  0  0  0
++         0  0  0  0  0  0  0  0  0  0  0  0  0  0  0  0  0
%c G  cc GPS ccc cccc cccc cccc cccc ccccc ccccc ccccc ccccc
%c cc cc ccc ccc cccc cccc cccc cccc ccccc ccccc ccccc ccccc
%f  1.2500000  1.025000000  0.00000000000  0.000000000000000
%f  0.0000000  0.000000000  0.00000000000  0.000000000000000
%i    0    0    0    0      0      0      0      0         0
%i    0    0    0    0      0      0      0      0         0
/* FINAL ORBIT COMBINATION FROM WEIGHTED AVERAGE OF:        
/* cod emr esa gfz grg jpl mit ngs sio                      
/* REFERENCED TO IGS TIME (IGST) AND TO WEIGHTED MEAN POLE: 
/* PCV:IGS14_1984 OL/AL:FES2004  NONE     Y  ORB:CMB CLK:CMB
*  2018  1 13 18 45  0.00000000
PG01 -18662.725465  -7375.263354  17407.884321    -23.392003  5  4  7  72       
PG02  13924.501899  22717.946405   2473.501478    229.131297  8  6  5  69       
PG03 -17383.434046   3365.665452  19760.822029    -10.504075  6  6  6  99       
PG04   6852.022330 -24082.321764  -8651.105845 999999.999999
PG05   7202.935280  16721.461435 -19369.780352    -17.066055  4  5  5  98       
PG06   4860.073923  23131.638034  12128.798476    414.723262  7  8  8  97       
PG07 -12349.310439   8783.718239 -21595.757130    252.014931  4  6  5  81       
PG08 -23818.150741  -5859.438172 -10293.199886    -87.559307  7  6  6 115       
PG09 -22658.392123   8821.127985 -10736.890218    492.713488  6  4  5  84       
PG10  10223.698604 -24238.165171   3060.466206    145.467007  1  7  5  75       
PG11 -23524.030094  -6856.577123   9527.901443   -733.885963  2  4  4  88       
PG12  16115.996320     -5.286792  20897.001878    355.639860  2  5  5  80       
PG13  17469.154741  12317.116987 -15877.194761    -95.326089  7  9  2 112       
PG14  -1634.534908 -15366.835408  21890.339007    -92.338042  3  7  6  82       
PG15  24843.439827   4024.455926  -9279.121958   -357.373140     4  6  58       
PG16  -5608.652979 -16178.096813 -20313.218598     34.095420  5 10  8 111       
PG17  -8606.988963  14072.190391  21170.702547   -131.132273  6  8  5 115       
PG18  15252.968434 -20159.331528  -7263.517857    633.550522  6 10  6  32       
PG19   -422.170730  14682.830869  21847.450567   -463.923115  6  9  6 114       
PG20  17058.660221  -1429.352313 -20448.933183    498.193094  5  4  4 104       
PG21  10081.877885 -11859.516463 -20726.695980   -442.156692  6  8  4  96       
PG22 -15535.185823  -4628.927378  21279.451990   -255.773888  7  7  6  88       
PG23 -26774.972899    903.495226    678.123249   -219.095858  5  5  6  82       
PG24  19784.812963   9631.247035  14964.927868    -44.732756  5  5  5 104       
PG25  17841.448126 -13506.306500  13963.391288   -521.794408  5  5  3  88       
PG26   1692.615285 -23206.667109 -12689.068005   -288.722611  4  8  3  87       
PG27 -13835.084432 -12352.936519 -19161.955190    362.334289  7  3  4  89       
PG28 -13694.675773  22773.983855   1066.545776    679.524768  4  7  4  77       
PG29  25174.253984  -4344.888863  -7253.797320    511.613277  6  4  4  86       
PG30  -5981.651879  17465.928940 -19037.238415    112.814463  3  3  6  88       
PG31  -4760.213358 -23395.852381  11224.384607    148.861614  5  8  6  69       
PG32   7268.966481 -14959.389994  20714.723194   -532.786873  3  5  5  86       
*  2018  1 13 19  0  0.00000000
PG01 -19604.179376  -9026.395360  15532.618931    -23.393688  5  4  7  68       
PG02  13490.039929  22571.689238   5244.705342    229.121952  8  6  5  68       
PG03 -16453.863650   1232.222901  20781.742457    -10.498123  6  6  6  95       
PG04   7406.339543 -24706.625761  -5903.402742 999999.999999
PG05   6173.350604  18588.617475 -17946.074509    -17.065078  3  6  5  88       
PG06   3855.826266  21985.050059  14413.801409    414.723671  6  8  8 100       
PG07 -13730.261078   6685.066318 -21553.241101    252.010000  3  5  5  79       
PG08 -22519.233166  -6162.135409 -12726.222899    -87.560580  7  6  5 104       
PG09 -23754.488437   8663.454790  -8184.811342    492.716439  6  5  4  61       
PG10  10543.970581 -24289.144615    204.350250    145.472196  2  7  5  83       
PG11 -24179.217412  -7742.746809   7012.182352   -733.887284  2  4  5  54       
PG12  14956.162370   2172.996767  21644.606615    355.638073  3  6  5  92       
PG13  15563.811933  12378.631402 -17719.378028    -95.326098  7  9  3 106       
PG14    812.611890 -15353.950152  21931.132066    -92.338766  3  7  6  84       
PG15  23730.882424   4469.662844 -11689.250324   -357.372873     6  5  83       
PG16  -4396.751691 -18048.330109 -18945.953527     34.094901  6 10  8 100       
PG17 -10888.347107  14053.649900  20072.498887   -131.129837  6  7  5 117       
PG18  15162.104147 -19046.885162  -9817.241684    633.550156  5  9  6  56       
PG19  -2968.877690  14619.948623  21711.529879   -463.921312  6  9  6 117       
PG20  16331.891519    815.008473 -21074.875482    498.194245  5  4  4 109       
PG21  11639.689387  -9826.059159 -20967.784371   -442.152761  6  7  3  85       
PG22 -14612.592762  -6846.674924  21333.671176   -255.785733  7  6  6  90       
PG23 -26592.171172    617.405633   3461.201836   -219.095823  6  4  6  83       
PG24  20557.997126  11049.316907  12829.259806    -44.733208  5  5  5 102       
PG25  17229.775785 -11857.802724  16068.015539   -521.799980  5  4  3 104       
PG26   2459.439910 -24304.674018 -10267.850093   -288.710031  3  8  4  95       
PG27 -11605.566569 -12605.445322 -20418.506597    362.336226  7  2  4  84       
PG28 -13790.689417  22585.198775  -1838.608056    679.527274  4  7  3  62       
PG29  25844.306065  -4167.562450  -4457.967324    511.608368  5  5  4  87       
PG30  -7253.686959  15600.574219 -20193.037423    112.811526  3  4  6  82       
PG31  -3804.804412 -22312.208913  13595.968409    148.859015  5  8  6  69       
PG32   9579.290231 -15045.527468  19680.014959   -532.787328  4  5  5  80       
*  2018  1 13 19 15  0.00000000
PG01 -20494.837309 -10440.976392  13390.947100    -23.395460  5  4  7  39       
PG02  12854.562359  22214.802934   7928.213987    229.112590  8  6  4  66       
PG03 -15600.006432  -1034.422321  21444.072484    -10.492154  5  6  5  93       
PG04   7798.575633 -25068.819502  -3052.964817 999999.999999
PG05   5301.897381  20340.584893 -16213.729576    -17.064560  4  7  6  87       
PG06   2642.015360  20700.430049  16451.029536    414.724102  6  7  9 110       
PG07 -15199.207172   4685.370842 -21133.733557    252.005198  3  5  5  62       
PG08 -20977.333861  -6572.227819 -14940.962210    -87.561654  7  6  5 103       
PG09 -24564.034859   8519.285345  -5492.127784    492.719415  6  5  4  62       
PG10  10738.209030 -24056.045800  -2655.313364    145.477294  3  7  6  49       
PG11 -24616.177271  -8453.684507   4372.673614   -733.887899  3  5  5  82       
PG12  13892.311093   4468.667069  22012.934799    355.636208  4  6  5  71       
PG13  13474.463492  12544.467733 -19259.207899    -95.326198  7  9  4  99       
PG14   3242.825508 -15469.723057  21603.917459    -92.339032  3  6  6  81       
PG15  22389.098370   5020.674939 -13904.164005   -357.373079  2  6  5  76       
PG16  -3367.932136 -19831.564175 -17251.703377     34.094336  6 10  9 111       
PG17 -13029.014999  14150.868868  18638.582802   -131.127209  6  7  4 117       
PG18  15029.964867 -17661.792880 -12195.913568    633.549849  5  9  6  70       
PG19  -5475.227234  14693.933431  21192.736498   -463.919187  6  8  6 112       
PG20  15697.833255   3138.458860 -21342.825613    498.194955  5  4  5  95       
PG21  13294.391883  -7863.841062 -20820.633142   -442.148935  6  6  4  69       
PG22 -13799.773507  -9092.458661  21028.517914   -255.797368  7  6  6  60       
PG23 -26119.793064    280.565009   6186.458328   -219.095960  6  2  6  83       
PG24  21239.107295  12230.520719  10474.583374    -44.734031  5  6  5  95       
PG25  16621.405059  -9971.496062  17890.286434   -521.805551  5  3  3  90       
PG26   3064.753388 -25175.709050  -7668.696099   -288.697457  3  7  5  95       
PG27  -9270.527682 -12997.321511 -21327.444557    362.338151  7  3  3  77       
PG28 -13751.296893  22106.632747  -4711.929012    679.530164  5  6  3  85       
PG29  26202.329533  -4003.872676  -1585.364158    511.603523  4  5  4  77       
PG30  -8678.381171  13709.825979 -21000.122167    112.808520  3  4  5  63       
PG31  -2646.296076 -21072.168475  15729.414274    148.856934  5  8  6  73       
PG32  11747.891349 -15231.543986  18306.657115   -532.787744  5  5  4  82       
EOF
